<?xml version='1.0' encoding='UTF-8'?>
<gpx version="1.1" creator="https://www.komoot.de" xmlns="http://www.topografix.com/GPX/1/1" xmlns:xsi="http://www.w3.org/2001/XMLSchema-instance" xsi:schemaLocation="http://www.topografix.com/GPX/1/1 http://www.topografix.com/GPX/1/1/gpx.xsd">
  <metadata>
    <name>Pfingsti 2026 Kurz</name>
    <author>
      <link href="https://www.komoot.de">
        <text>komoot</text>
        <type>text/html</type>
      </link>
    </author>
  </metadata>
  <wpt lat="48.610180" lon="9.777492">
    <name>Hausener Wand</name>
    <sym>Flag, Blue</sym>
  </wpt>
  <wpt lat="48.614815" lon="9.769205">
    <name>Hausener Wand Felsen</name>
    <sym>Flag, Blue</sym>
  </wpt>
  <wpt lat="48.631210" lon="9.775084">
    <name>Parkplatz und Grillstelle Oberböhringer Heide</name>
    <sym>Flag, Blue</sym>
  </wpt>
  <trk>
    <name>Pfingsti 2026 Kurz</name>
    <trkseg>
      <trkpt lat="48.631386" lon="9.774919">
        <ele>701.242053</ele>
        <time>2026-04-08T15:56:38.413Z</time>
      </trkpt>
      <trkpt lat="48.631565" lon="9.775191">
        <ele>701.242053</ele>
        <time>2026-04-08T15:57:10.709Z</time>
      </trkpt>
      <trkpt lat="48.631755" lon="9.775257">
        <ele>701.242053</ele>
        <time>2026-04-08T15:57:35.745Z</time>
      </trkpt>
      <trkpt lat="48.631886" lon="9.775240">
        <ele>701.242053</ele>
        <time>2026-04-08T15:57:52.844Z</time>
      </trkpt>
      <trkpt lat="48.632229" lon="9.775139">
        <ele>701.281994</ele>
        <time>2026-04-08T15:58:39.149Z</time>
      </trkpt>
      <trkpt lat="48.632260" lon="9.775197">
        <ele>701.347145</ele>
        <time>2026-04-08T15:58:45.725Z</time>
      </trkpt>
      <trkpt lat="48.632270" lon="9.775575">
        <ele>701.677563</ele>
        <time>2026-04-08T15:59:19.247Z</time>
      </trkpt>
      <trkpt lat="48.632729" lon="9.775545">
        <ele>702.284737</ele>
        <time>2026-04-08T16:00:19.788Z</time>
      </trkpt>
      <trkpt lat="48.632986" lon="9.775449">
        <ele>702.634580</ele>
        <time>2026-04-08T16:00:53.505Z</time>
      </trkpt>
      <trkpt lat="48.633058" lon="9.775246">
        <ele>702.835802</ele>
        <time>2026-04-08T16:01:12.329Z</time>
      </trkpt>
      <trkpt lat="48.633012" lon="9.775171">
        <ele>702.925171</ele>
        <time>2026-04-08T16:01:20.523Z</time>
      </trkpt>
      <trkpt lat="48.633058" lon="9.775246">
        <ele>703.014540</ele>
        <time>2026-04-08T16:01:28.697Z</time>
      </trkpt>
      <trkpt lat="48.633481" lon="9.774844">
        <ele>703.541935</ele>
        <time>2026-04-08T16:02:29.203Z</time>
      </trkpt>
      <trkpt lat="48.633768" lon="9.775711">
        <ele>702.365759</ele>
        <time>2026-04-08T16:03:48.629Z</time>
      </trkpt>
      <trkpt lat="48.633871" lon="9.776359">
        <ele>701.557356</ele>
        <time>2026-04-08T16:04:43.674Z</time>
      </trkpt>
      <trkpt lat="48.634248" lon="9.777447">
        <ele>699.532251</ele>
        <time>2026-04-08T16:06:25.501Z</time>
      </trkpt>
      <trkpt lat="48.634332" lon="9.777866">
        <ele>697.867478</ele>
        <time>2026-04-08T16:07:02.673Z</time>
      </trkpt>
      <trkpt lat="48.634177" lon="9.778632">
        <ele>694.821596</ele>
        <time>2026-04-08T16:08:12.329Z</time>
      </trkpt>
      <trkpt lat="48.634060" lon="9.778771">
        <ele>693.965786</ele>
        <time>2026-04-08T16:08:32.217Z</time>
      </trkpt>
      <trkpt lat="48.633892" lon="9.778865">
        <ele>692.935279</ele>
        <time>2026-04-08T16:08:56.689Z</time>
      </trkpt>
      <trkpt lat="48.633500" lon="9.778743">
        <ele>690.632796</ele>
        <time>2026-04-08T16:09:52.384Z</time>
      </trkpt>
      <trkpt lat="48.633258" lon="9.778570">
        <ele>687.883659</ele>
        <time>2026-04-08T16:10:30.396Z</time>
      </trkpt>
      <trkpt lat="48.633010" lon="9.778437">
        <ele>684.282396</ele>
        <time>2026-04-08T16:11:08.506Z</time>
      </trkpt>
      <trkpt lat="48.632974" lon="9.778658">
        <ele>682.223519</ele>
        <time>2026-04-08T16:11:30.628Z</time>
      </trkpt>
      <trkpt lat="48.633184" lon="9.778928">
        <ele>678.451768</ele>
        <time>2026-04-08T16:12:11.741Z</time>
      </trkpt>
      <trkpt lat="48.633433" lon="9.779181">
        <ele>674.346642</ele>
        <time>2026-04-08T16:12:57.575Z</time>
      </trkpt>
      <trkpt lat="48.633612" lon="9.779640">
        <ele>669.525854</ele>
        <time>2026-04-08T16:13:53.040Z</time>
      </trkpt>
      <trkpt lat="48.634011" lon="9.780843">
        <ele>655.564983</ele>
        <time>2026-04-08T16:16:22.965Z</time>
      </trkpt>
      <trkpt lat="48.634341" lon="9.782157">
        <ele>640.012265</ele>
        <time>2026-04-08T16:18:55.726Z</time>
      </trkpt>
      <trkpt lat="48.634630" lon="9.782996">
        <ele>632.846670</ele>
        <time>2026-04-08T16:20:30.006Z</time>
      </trkpt>
      <trkpt lat="48.634643" lon="9.783030">
        <ele>632.664097</ele>
        <time>2026-04-08T16:20:33.729Z</time>
      </trkpt>
      <trkpt lat="48.634909" lon="9.783705">
        <ele>629.011320</ele>
        <time>2026-04-08T16:21:47.028Z</time>
      </trkpt>
      <trkpt lat="48.634073" lon="9.782391">
        <ele>623.882998</ele>
        <time>2026-04-08T16:24:22.064Z</time>
      </trkpt>
      <trkpt lat="48.633449" lon="9.781248">
        <ele>628.221917</ele>
        <time>2026-04-08T16:26:32.306Z</time>
      </trkpt>
      <trkpt lat="48.632872" lon="9.780488">
        <ele>633.109233</ele>
        <time>2026-04-08T16:28:35.965Z</time>
      </trkpt>
      <trkpt lat="48.632353" lon="9.779972">
        <ele>639.766629</ele>
        <time>2026-04-08T16:30:53.654Z</time>
      </trkpt>
      <trkpt lat="48.632134" lon="9.779827">
        <ele>642.329294</ele>
        <time>2026-04-08T16:31:42.043Z</time>
      </trkpt>
      <trkpt lat="48.631718" lon="9.779397">
        <ele>647.730192</ele>
        <time>2026-04-08T16:33:02.267Z</time>
      </trkpt>
      <trkpt lat="48.631434" lon="9.779367">
        <ele>649.416837</ele>
        <time>2026-04-08T16:33:39.737Z</time>
      </trkpt>
      <trkpt lat="48.631209" lon="9.779537">
        <ele>648.222118</ele>
        <time>2026-04-08T16:34:10.999Z</time>
      </trkpt>
      <trkpt lat="48.630937" lon="9.780193">
        <ele>645.790736</ele>
        <time>2026-04-08T16:35:20.914Z</time>
      </trkpt>
      <trkpt lat="48.630814" lon="9.780409">
        <ele>644.895564</ele>
        <time>2026-04-08T16:35:48.839Z</time>
      </trkpt>
      <trkpt lat="48.630641" lon="9.780501">
        <ele>644.024440</ele>
        <time>2026-04-08T16:36:15.915Z</time>
      </trkpt>
      <trkpt lat="48.630369" lon="9.780501">
        <ele>642.732297</ele>
        <time>2026-04-08T16:36:55.079Z</time>
      </trkpt>
      <trkpt lat="48.629988" lon="9.780347">
        <ele>641.335198</ele>
        <time>2026-04-08T16:37:47.549Z</time>
      </trkpt>
      <trkpt lat="48.629889" lon="9.780193">
        <ele>641.403195</ele>
        <time>2026-04-08T16:38:05.216Z</time>
      </trkpt>
      <trkpt lat="48.629058" lon="9.779592">
        <ele>641.844283</ele>
        <time>2026-04-08T16:40:04.255Z</time>
      </trkpt>
      <trkpt lat="48.628095" lon="9.779243">
        <ele>644.087390</ele>
        <time>2026-04-08T16:42:10.620Z</time>
      </trkpt>
      <trkpt lat="48.627417" lon="9.778936">
        <ele>648.047290</ele>
        <time>2026-04-08T16:43:46.247Z</time>
      </trkpt>
      <trkpt lat="48.626657" lon="9.778496">
        <ele>652.792101</ele>
        <time>2026-04-08T16:45:54.267Z</time>
      </trkpt>
      <trkpt lat="48.626529" lon="9.778440">
        <ele>653.910209</ele>
        <time>2026-04-08T16:46:16.084Z</time>
      </trkpt>
      <trkpt lat="48.626408" lon="9.778388">
        <ele>654.965739</ele>
        <time>2026-04-08T16:46:36.735Z</time>
      </trkpt>
      <trkpt lat="48.625831" lon="9.778325">
        <ele>659.820181</ele>
        <time>2026-04-08T16:48:08.155Z</time>
      </trkpt>
      <trkpt lat="48.625609" lon="9.778462">
        <ele>661.832093</ele>
        <time>2026-04-08T16:48:44.457Z</time>
      </trkpt>
      <trkpt lat="48.625381" lon="9.778828">
        <ele>664.621635</ele>
        <time>2026-04-08T16:49:33.984Z</time>
      </trkpt>
      <trkpt lat="48.625351" lon="9.779056">
        <ele>665.911064</ele>
        <time>2026-04-08T16:49:56.526Z</time>
      </trkpt>
      <trkpt lat="48.625198" lon="9.779322">
        <ele>668.002529</ele>
        <time>2026-04-08T16:50:30.312Z</time>
      </trkpt>
      <trkpt lat="48.625077" lon="9.779413">
        <ele>669.412758</ele>
        <time>2026-04-08T16:50:49.711Z</time>
      </trkpt>
      <trkpt lat="48.624174" lon="9.779621">
        <ele>678.945456</ele>
        <time>2026-04-08T16:53:12.280Z</time>
      </trkpt>
      <trkpt lat="48.623753" lon="9.779777">
        <ele>683.469064</ele>
        <time>2026-04-08T16:54:34.779Z</time>
      </trkpt>
      <trkpt lat="48.623888" lon="9.779468">
        <ele>686.024233</ele>
        <time>2026-04-08T16:55:23.317Z</time>
      </trkpt>
      <trkpt lat="48.623775" lon="9.779513">
        <ele>687.328870</ele>
        <time>2026-04-08T16:55:45.512Z</time>
      </trkpt>
      <trkpt lat="48.623980" lon="9.779228">
        <ele>690.447391</ele>
        <time>2026-04-08T16:56:36.517Z</time>
      </trkpt>
      <trkpt lat="48.623615" lon="9.779268">
        <ele>694.546491</ele>
        <time>2026-04-08T16:57:43.324Z</time>
      </trkpt>
      <trkpt lat="48.623799" lon="9.778900">
        <ele>697.962831</ele>
        <time>2026-04-08T16:58:38.264Z</time>
      </trkpt>
      <trkpt lat="48.624156" lon="9.778707">
        <ele>702.209256</ele>
        <time>2026-04-08T16:59:40.320Z</time>
      </trkpt>
      <trkpt lat="48.624269" lon="9.778390">
        <ele>704.875816</ele>
        <time>2026-04-08T17:00:17.178Z</time>
      </trkpt>
      <trkpt lat="48.623682" lon="9.778464">
        <ele>707.957562</ele>
        <time>2026-04-08T17:01:40.550Z</time>
      </trkpt>
      <trkpt lat="48.623510" lon="9.778571">
        <ele>708.644322</ele>
        <time>2026-04-08T17:02:05.721Z</time>
      </trkpt>
      <trkpt lat="48.623022" lon="9.779207">
        <ele>711.022882</ele>
        <time>2026-04-08T17:03:31.334Z</time>
      </trkpt>
      <trkpt lat="48.622439" lon="9.779371">
        <ele>713.212807</ele>
        <time>2026-04-08T17:04:44.720Z</time>
      </trkpt>
      <trkpt lat="48.621775" lon="9.779841">
        <ele>715.921014</ele>
        <time>2026-04-08T17:06:22.566Z</time>
      </trkpt>
      <trkpt lat="48.621699" lon="9.780108">
        <ele>716.630908</ele>
        <time>2026-04-08T17:06:49.728Z</time>
      </trkpt>
      <trkpt lat="48.621746" lon="9.780372">
        <ele>717.298567</ele>
        <time>2026-04-08T17:07:15.446Z</time>
      </trkpt>
      <trkpt lat="48.621781" lon="9.780970">
        <ele>718.764593</ele>
        <time>2026-04-08T17:08:11.555Z</time>
      </trkpt>
      <trkpt lat="48.621836" lon="9.781895">
        <ele>719.936672</ele>
        <time>2026-04-08T17:09:35.954Z</time>
      </trkpt>
      <trkpt lat="48.622038" lon="9.782467">
        <ele>720.376803</ele>
        <time>2026-04-08T17:10:31.651Z</time>
      </trkpt>
      <trkpt lat="48.622106" lon="9.782659">
        <ele>720.524634</ele>
        <time>2026-04-08T17:10:49.288Z</time>
      </trkpt>
      <trkpt lat="48.622098" lon="9.782857">
        <ele>720.659262</ele>
        <time>2026-04-08T17:11:05.049Z</time>
      </trkpt>
      <trkpt lat="48.622188" lon="9.783318">
        <ele>720.985492</ele>
        <time>2026-04-08T17:11:43.949Z</time>
      </trkpt>
      <trkpt lat="48.622308" lon="9.783713">
        <ele>721.280525</ele>
        <time>2026-04-08T17:12:19.970Z</time>
      </trkpt>
      <trkpt lat="48.622465" lon="9.784099">
        <ele>720.848660</ele>
        <time>2026-04-08T17:12:57.673Z</time>
      </trkpt>
      <trkpt lat="48.623151" lon="9.785142">
        <ele>718.588027</ele>
        <time>2026-04-08T17:15:00.055Z</time>
      </trkpt>
      <trkpt lat="48.623542" lon="9.785646">
        <ele>717.394049</ele>
        <time>2026-04-08T17:16:04.446Z</time>
      </trkpt>
      <trkpt lat="48.624032" lon="9.786356">
        <ele>714.749295</ele>
        <time>2026-04-08T17:17:30.601Z</time>
      </trkpt>
      <trkpt lat="48.624985" lon="9.787995">
        <ele>707.750166</ele>
        <time>2026-04-08T17:20:40.015Z</time>
      </trkpt>
      <trkpt lat="48.625251" lon="9.789893">
        <ele>696.773697</ele>
        <time>2026-04-08T17:23:38.763Z</time>
      </trkpt>
      <trkpt lat="48.625524" lon="9.790444">
        <ele>692.345951</ele>
        <time>2026-04-08T17:24:46.549Z</time>
      </trkpt>
      <trkpt lat="48.625864" lon="9.791264">
        <ele>684.867004</ele>
        <time>2026-04-08T17:26:26.729Z</time>
      </trkpt>
      <trkpt lat="48.626071" lon="9.791486">
        <ele>681.901063</ele>
        <time>2026-04-08T17:27:05.220Z</time>
      </trkpt>
      <trkpt lat="48.626351" lon="9.791767">
        <ele>677.973475</ele>
        <time>2026-04-08T17:27:54.536Z</time>
      </trkpt>
      <trkpt lat="48.626398" lon="9.791942">
        <ele>676.514036</ele>
        <time>2026-04-08T17:28:12.340Z</time>
      </trkpt>
      <trkpt lat="48.626379" lon="9.792079">
        <ele>675.432499</ele>
        <time>2026-04-08T17:28:25.303Z</time>
      </trkpt>
      <trkpt lat="48.626315" lon="9.792114">
        <ele>674.637016</ele>
        <time>2026-04-08T17:28:34.864Z</time>
      </trkpt>
      <trkpt lat="48.626245" lon="9.792285">
        <ele>673.272324</ele>
        <time>2026-04-08T17:28:53.335Z</time>
      </trkpt>
      <trkpt lat="48.626146" lon="9.792442">
        <ele>673.007189</ele>
        <time>2026-04-08T17:29:12.983Z</time>
      </trkpt>
      <trkpt lat="48.625999" lon="9.792527">
        <ele>672.716266</ele>
        <time>2026-04-08T17:29:34.224Z</time>
      </trkpt>
      <trkpt lat="48.625882" lon="9.792527">
        <ele>672.499974</ele>
        <time>2026-04-08T17:29:49.781Z</time>
      </trkpt>
      <trkpt lat="48.625632" lon="9.792397">
        <ele>672.011275</ele>
        <time>2026-04-08T17:30:23.261Z</time>
      </trkpt>
      <trkpt lat="48.625441" lon="9.792412">
        <ele>671.657708</ele>
        <time>2026-04-08T17:30:46.691Z</time>
      </trkpt>
      <trkpt lat="48.625299" lon="9.792492">
        <ele>671.377589</ele>
        <time>2026-04-08T17:31:05.141Z</time>
      </trkpt>
      <trkpt lat="48.624899" lon="9.792456">
        <ele>670.636823</ele>
        <time>2026-04-08T17:31:53.349Z</time>
      </trkpt>
      <trkpt lat="48.624638" lon="9.792272">
        <ele>670.104512</ele>
        <time>2026-04-08T17:32:28.355Z</time>
      </trkpt>
      <trkpt lat="48.624023" lon="9.792287">
        <ele>673.348395</ele>
        <time>2026-04-08T17:33:49.652Z</time>
      </trkpt>
      <trkpt lat="48.623845" lon="9.792245">
        <ele>674.452264</ele>
        <time>2026-04-08T17:34:15.305Z</time>
      </trkpt>
      <trkpt lat="48.623658" lon="9.791918">
        <ele>676.203559</ele>
        <time>2026-04-08T17:34:58.028Z</time>
      </trkpt>
      <trkpt lat="48.623461" lon="9.791798">
        <ele>677.504837</ele>
        <time>2026-04-08T17:35:31.068Z</time>
      </trkpt>
      <trkpt lat="48.622911" lon="9.791181">
        <ele>681.301142</ele>
        <time>2026-04-08T17:37:20.143Z</time>
      </trkpt>
      <trkpt lat="48.622585" lon="9.790985">
        <ele>682.218505</ele>
        <time>2026-04-08T17:38:14.128Z</time>
      </trkpt>
      <trkpt lat="48.622116" lon="9.791052">
        <ele>683.450419</ele>
        <time>2026-04-08T17:39:20.592Z</time>
      </trkpt>
      <trkpt lat="48.621969" lon="9.791336">
        <ele>684.073941</ele>
        <time>2026-04-08T17:39:50.986Z</time>
      </trkpt>
      <trkpt lat="48.621627" lon="9.791754">
        <ele>685.223703</ele>
        <time>2026-04-08T17:40:45.541Z</time>
      </trkpt>
      <trkpt lat="48.621234" lon="9.792628">
        <ele>683.037007</ele>
        <time>2026-04-08T17:42:19.435Z</time>
      </trkpt>
      <trkpt lat="48.621047" lon="9.793594">
        <ele>679.578466</ele>
        <time>2026-04-08T17:43:49.919Z</time>
      </trkpt>
      <trkpt lat="48.620844" lon="9.794093">
        <ele>677.565241</ele>
        <time>2026-04-08T17:44:41.455Z</time>
      </trkpt>
      <trkpt lat="48.620655" lon="9.794300">
        <ele>676.356411</ele>
        <time>2026-04-08T17:45:12.223Z</time>
      </trkpt>
      <trkpt lat="48.619877" lon="9.794508">
        <ele>675.021740</ele>
        <time>2026-04-08T17:46:52.601Z</time>
      </trkpt>
      <trkpt lat="48.619482" lon="9.794753">
        <ele>674.300538</ele>
        <time>2026-04-08T17:47:44.582Z</time>
      </trkpt>
      <trkpt lat="48.619076" lon="9.795086">
        <ele>673.520339</ele>
        <time>2026-04-08T17:48:40.090Z</time>
      </trkpt>
      <trkpt lat="48.618505" lon="9.795272">
        <ele>673.233798</ele>
        <time>2026-04-08T17:49:50.298Z</time>
      </trkpt>
      <trkpt lat="48.618104" lon="9.795119">
        <ele>673.157351</ele>
        <time>2026-04-08T17:50:40.005Z</time>
      </trkpt>
      <trkpt lat="48.618038" lon="9.795228">
        <ele>673.139288</ele>
        <time>2026-04-08T17:50:51.774Z</time>
      </trkpt>
      <trkpt lat="48.617352" lon="9.796363">
        <ele>672.657551</ele>
        <time>2026-04-08T17:52:54.647Z</time>
      </trkpt>
      <trkpt lat="48.617157" lon="9.796542">
        <ele>672.271154</ele>
        <time>2026-04-08T17:53:22.504Z</time>
      </trkpt>
      <trkpt lat="48.616971" lon="9.796592">
        <ele>671.951131</ele>
        <time>2026-04-08T17:53:45.488Z</time>
      </trkpt>
      <trkpt lat="48.616943" lon="9.796356">
        <ele>671.682614</ele>
        <time>2026-04-08T17:54:04.835Z</time>
      </trkpt>
      <trkpt lat="48.615183" lon="9.795759">
        <ele>665.139851</ele>
        <time>2026-04-08T17:57:53.050Z</time>
      </trkpt>
      <trkpt lat="48.614923" lon="9.795783">
        <ele>663.526900</ele>
        <time>2026-04-08T17:58:31.203Z</time>
      </trkpt>
      <trkpt lat="48.614524" lon="9.795948">
        <ele>660.965565</ele>
        <time>2026-04-08T17:59:31.267Z</time>
      </trkpt>
      <trkpt lat="48.613885" lon="9.796169">
        <ele>660.008161</ele>
        <time>2026-04-08T18:01:02.996Z</time>
      </trkpt>
      <trkpt lat="48.613201" lon="9.795653">
        <ele>663.016171</ele>
        <time>2026-04-08T18:02:36.376Z</time>
      </trkpt>
      <trkpt lat="48.613174" lon="9.795286">
        <ele>663.976934</ele>
        <time>2026-04-08T18:03:16.033Z</time>
      </trkpt>
      <trkpt lat="48.612993" lon="9.794837">
        <ele>665.345186</ele>
        <time>2026-04-08T18:04:24.521Z</time>
      </trkpt>
      <trkpt lat="48.612863" lon="9.794723">
        <ele>666.060823</ele>
        <time>2026-04-08T18:04:54.901Z</time>
      </trkpt>
      <trkpt lat="48.612832" lon="9.793774">
        <ele>674.093459</ele>
        <time>2026-04-08T18:07:03.442Z</time>
      </trkpt>
      <trkpt lat="48.613463" lon="9.790819">
        <ele>696.744726</ele>
        <time>2026-04-08T18:12:46.711Z</time>
      </trkpt>
      <trkpt lat="48.614948" lon="9.790501">
        <ele>707.590856</ele>
        <time>2026-04-08T18:16:25.176Z</time>
      </trkpt>
      <trkpt lat="48.615448" lon="9.790380">
        <ele>710.076600</ele>
        <time>2026-04-08T18:17:35.913Z</time>
      </trkpt>
      <trkpt lat="48.615397" lon="9.790027">
        <ele>711.249273</ele>
        <time>2026-04-08T18:18:08.995Z</time>
      </trkpt>
      <trkpt lat="48.615150" lon="9.787537">
        <ele>717.783645</ele>
        <time>2026-04-08T18:21:54.420Z</time>
      </trkpt>
      <trkpt lat="48.615085" lon="9.787266">
        <ele>718.461157</ele>
        <time>2026-04-08T18:22:19.975Z</time>
      </trkpt>
      <trkpt lat="48.615105" lon="9.787068">
        <ele>718.931888</ele>
        <time>2026-04-08T18:22:37.734Z</time>
      </trkpt>
      <trkpt lat="48.615075" lon="9.786952">
        <ele>719.224624</ele>
        <time>2026-04-08T18:22:48.967Z</time>
      </trkpt>
      <trkpt lat="48.614939" lon="9.785837">
        <ele>721.331831</ele>
        <time>2026-04-08T18:24:29.472Z</time>
      </trkpt>
      <trkpt lat="48.614869" lon="9.785858">
        <ele>721.515142</ele>
        <time>2026-04-08T18:24:38.864Z</time>
      </trkpt>
      <trkpt lat="48.614939" lon="9.785837">
        <ele>721.698454</ele>
        <time>2026-04-08T18:24:48.505Z</time>
      </trkpt>
      <trkpt lat="48.615328" lon="9.785720">
        <ele>722.717242</ele>
        <time>2026-04-08T18:25:40.646Z</time>
      </trkpt>
      <trkpt lat="48.615446" lon="9.785624">
        <ele>723.061410</ele>
        <time>2026-04-08T18:25:58.040Z</time>
      </trkpt>
      <trkpt lat="48.615554" lon="9.785401">
        <ele>723.530849</ele>
        <time>2026-04-08T18:26:21.626Z</time>
      </trkpt>
      <trkpt lat="48.616313" lon="9.782906">
        <ele>726.948910</ele>
        <time>2026-04-08T18:30:11.077Z</time>
      </trkpt>
      <trkpt lat="48.616415" lon="9.782887">
        <ele>727.123879</ele>
        <time>2026-04-08T18:30:24.318Z</time>
      </trkpt>
      <trkpt lat="48.616074" lon="9.782364">
        <ele>727.978852</ele>
        <time>2026-04-08T18:31:27.345Z</time>
      </trkpt>
      <trkpt lat="48.615735" lon="9.781853">
        <ele>728.852794</ele>
        <time>2026-04-08T18:32:29.630Z</time>
      </trkpt>
      <trkpt lat="48.615518" lon="9.781042">
        <ele>729.909015</ele>
        <time>2026-04-08T18:33:44.926Z</time>
      </trkpt>
      <trkpt lat="48.615074" lon="9.779408">
        <ele>728.907082</ele>
        <time>2026-04-08T18:36:09.542Z</time>
      </trkpt>
      <trkpt lat="48.614902" lon="9.779388">
        <ele>728.395834</ele>
        <time>2026-04-08T18:36:30.597Z</time>
      </trkpt>
      <trkpt lat="48.614109" lon="9.779298">
        <ele>726.039072</ele>
        <time>2026-04-08T18:38:12.875Z</time>
      </trkpt>
      <trkpt lat="48.610487" lon="9.778873">
        <ele>686.447963</ele>
        <time>2026-04-08T18:47:04.888Z</time>
      </trkpt>
      <trkpt lat="48.610392" lon="9.778677">
        <ele>684.607270</ele>
        <time>2026-04-08T18:47:31.054Z</time>
      </trkpt>
      <trkpt lat="48.610351" lon="9.778398">
        <ele>683.323221</ele>
        <time>2026-04-08T18:48:02.735Z</time>
      </trkpt>
      <trkpt lat="48.610487" lon="9.777614">
        <ele>679.681741</ele>
        <time>2026-04-08T18:49:26.481Z</time>
      </trkpt>
      <trkpt lat="48.610622" lon="9.776836">
        <ele>676.068068</ele>
        <time>2026-04-08T18:50:39.929Z</time>
      </trkpt>
      <trkpt lat="48.610710" lon="9.776540">
        <ele>674.609985</ele>
        <time>2026-04-08T18:51:06.668Z</time>
      </trkpt>
      <trkpt lat="48.610773" lon="9.776627">
        <ele>674.030305</ele>
        <time>2026-04-08T18:51:18.499Z</time>
      </trkpt>
      <trkpt lat="48.611050" lon="9.775834">
        <ele>675.913679</ele>
        <time>2026-04-08T18:52:47.178Z</time>
      </trkpt>
      <trkpt lat="48.611577" lon="9.774516">
        <ele>685.234601</ele>
        <time>2026-04-08T18:55:53.308Z</time>
      </trkpt>
      <trkpt lat="48.611998" lon="9.772741">
        <ele>696.050232</ele>
        <time>2026-04-08T18:58:53.987Z</time>
      </trkpt>
      <trkpt lat="48.612115" lon="9.771963">
        <ele>700.503037</ele>
        <time>2026-04-08T19:00:15.099Z</time>
      </trkpt>
      <trkpt lat="48.612148" lon="9.771889">
        <ele>701.001181</ele>
        <time>2026-04-08T19:00:24.338Z</time>
      </trkpt>
      <trkpt lat="48.612199" lon="9.771895">
        <ele>701.432976</ele>
        <time>2026-04-08T19:00:33.083Z</time>
      </trkpt>
      <trkpt lat="48.612414" lon="9.772046">
        <ele>703.433916</ele>
        <time>2026-04-08T19:01:13.291Z</time>
      </trkpt>
      <trkpt lat="48.613403" lon="9.773009">
        <ele>711.831811</ele>
        <time>2026-04-08T19:04:37.318Z</time>
      </trkpt>
      <trkpt lat="48.613544" lon="9.773092">
        <ele>712.896412</ele>
        <time>2026-04-08T19:04:58.603Z</time>
      </trkpt>
      <trkpt lat="48.613743" lon="9.773072">
        <ele>714.299719</ele>
        <time>2026-04-08T19:05:24.598Z</time>
      </trkpt>
      <trkpt lat="48.613769" lon="9.772790">
        <ele>715.624253</ele>
        <time>2026-04-08T19:05:47.173Z</time>
      </trkpt>
      <trkpt lat="48.613713" lon="9.772698">
        <ele>716.205995</ele>
        <time>2026-04-08T19:05:57.402Z</time>
      </trkpt>
      <trkpt lat="48.613662" lon="9.772515">
        <ele>716.643211</ele>
        <time>2026-04-08T19:06:13.883Z</time>
      </trkpt>
      <trkpt lat="48.613660" lon="9.772234">
        <ele>715.890655</ele>
        <time>2026-04-08T19:06:37.741Z</time>
      </trkpt>
      <trkpt lat="48.613749" lon="9.772022">
        <ele>715.218137</ele>
        <time>2026-04-08T19:06:59.641Z</time>
      </trkpt>
      <trkpt lat="48.613883" lon="9.771874">
        <ele>714.546056</ele>
        <time>2026-04-08T19:07:21.820Z</time>
      </trkpt>
      <trkpt lat="48.614016" lon="9.771422">
        <ele>713.221144</ele>
        <time>2026-04-08T19:08:05.581Z</time>
      </trkpt>
      <trkpt lat="48.614308" lon="9.770886">
        <ele>711.361233</ele>
        <time>2026-04-08T19:09:07.381Z</time>
      </trkpt>
      <trkpt lat="48.614647" lon="9.770437">
        <ele>709.536051</ele>
        <time>2026-04-08T19:10:06.516Z</time>
      </trkpt>
      <trkpt lat="48.614983" lon="9.769472">
        <ele>708.844143</ele>
        <time>2026-04-08T19:11:36.849Z</time>
      </trkpt>
      <trkpt lat="48.615085" lon="9.769280">
        <ele>708.687991</ele>
        <time>2026-04-08T19:11:56.578Z</time>
      </trkpt>
      <trkpt lat="48.614957" lon="9.769160">
        <ele>708.543584</ele>
        <time>2026-04-08T19:12:15.090Z</time>
      </trkpt>
      <trkpt lat="48.614836" lon="9.769162">
        <ele>708.427546</ele>
        <time>2026-04-08T19:12:30.284Z</time>
      </trkpt>
      <trkpt lat="48.614957" lon="9.769160">
        <ele>708.311508</ele>
        <time>2026-04-08T19:12:44.817Z</time>
      </trkpt>
      <trkpt lat="48.615085" lon="9.769280">
        <ele>708.167101</ele>
        <time>2026-04-08T19:13:02.889Z</time>
      </trkpt>
      <trkpt lat="48.615212" lon="9.769038">
        <ele>707.971220</ele>
        <time>2026-04-08T19:13:28.022Z</time>
      </trkpt>
      <trkpt lat="48.615371" lon="9.768837">
        <ele>707.893339</ele>
        <time>2026-04-08T19:13:55.079Z</time>
      </trkpt>
      <trkpt lat="48.616298" lon="9.768708">
        <ele>709.828408</ele>
        <time>2026-04-08T19:15:57.930Z</time>
      </trkpt>
      <trkpt lat="48.616536" lon="9.768587">
        <ele>710.350329</ele>
        <time>2026-04-08T19:16:30.128Z</time>
      </trkpt>
      <trkpt lat="48.616780" lon="9.768375">
        <ele>710.935241</ele>
        <time>2026-04-08T19:17:06.906Z</time>
      </trkpt>
      <trkpt lat="48.617062" lon="9.768239">
        <ele>711.548069</ele>
        <time>2026-04-08T19:17:45.910Z</time>
      </trkpt>
      <trkpt lat="48.617366" lon="9.768223">
        <ele>710.713415</ele>
        <time>2026-04-08T19:18:24.319Z</time>
      </trkpt>
      <trkpt lat="48.618032" lon="9.767941">
        <ele>708.815727</ele>
        <time>2026-04-08T19:19:50.652Z</time>
      </trkpt>
      <trkpt lat="48.618248" lon="9.767604">
        <ele>707.964283</ele>
        <time>2026-04-08T19:20:31.861Z</time>
      </trkpt>
      <trkpt lat="48.618535" lon="9.766776">
        <ele>706.397037</ele>
        <time>2026-04-08T19:21:55.472Z</time>
      </trkpt>
      <trkpt lat="48.618839" lon="9.766535">
        <ele>705.805642</ele>
        <time>2026-04-08T19:22:42.845Z</time>
      </trkpt>
      <trkpt lat="48.619938" lon="9.766111">
        <ele>703.851344</ele>
        <time>2026-04-08T19:25:03.138Z</time>
      </trkpt>
      <trkpt lat="48.620068" lon="9.766069">
        <ele>703.622290</ele>
        <time>2026-04-08T19:25:21.621Z</time>
      </trkpt>
      <trkpt lat="48.620126" lon="9.766096">
        <ele>703.517725</ele>
        <time>2026-04-08T19:25:30.045Z</time>
      </trkpt>
      <trkpt lat="48.620174" lon="9.766180">
        <ele>703.855118</ele>
        <time>2026-04-08T19:25:40.497Z</time>
      </trkpt>
      <trkpt lat="48.620979" lon="9.768825">
        <ele>712.481297</ele>
        <time>2026-04-08T19:30:16.807Z</time>
      </trkpt>
      <trkpt lat="48.621734" lon="9.771363">
        <ele>715.549906</ele>
        <time>2026-04-08T19:34:11.071Z</time>
      </trkpt>
      <trkpt lat="48.621846" lon="9.771597">
        <ele>715.166590</ele>
        <time>2026-04-08T19:34:34.630Z</time>
      </trkpt>
      <trkpt lat="48.622991" lon="9.772786">
        <ele>712.336271</ele>
        <time>2026-04-08T19:37:31.404Z</time>
      </trkpt>
      <trkpt lat="48.624331" lon="9.774168">
        <ele>705.652706</ele>
        <time>2026-04-08T19:41:02.418Z</time>
      </trkpt>
      <trkpt lat="48.624425" lon="9.774069">
        <ele>705.180687</ele>
        <time>2026-04-08T19:41:17.521Z</time>
      </trkpt>
      <trkpt lat="48.624535" lon="9.774024">
        <ele>704.604658</ele>
        <time>2026-04-08T19:41:32.492Z</time>
      </trkpt>
      <trkpt lat="48.624654" lon="9.774026">
        <ele>703.937864</ele>
        <time>2026-04-08T19:41:48.190Z</time>
      </trkpt>
      <trkpt lat="48.624751" lon="9.774092">
        <ele>703.341940</ele>
        <time>2026-04-08T19:42:02.330Z</time>
      </trkpt>
      <trkpt lat="48.624844" lon="9.774228">
        <ele>702.617228</ele>
        <time>2026-04-08T19:42:19.555Z</time>
      </trkpt>
      <trkpt lat="48.625366" lon="9.775296">
        <ele>697.698025</ele>
        <time>2026-04-08T19:44:17.181Z</time>
      </trkpt>
      <trkpt lat="48.625791" lon="9.775870">
        <ele>694.338558</ele>
        <time>2026-04-08T19:45:33.454Z</time>
      </trkpt>
      <trkpt lat="48.626002" lon="9.776065">
        <ele>692.405434</ele>
        <time>2026-04-08T19:46:07.053Z</time>
      </trkpt>
      <trkpt lat="48.626323" lon="9.776296">
        <ele>689.626274</ele>
        <time>2026-04-08T19:46:56.254Z</time>
      </trkpt>
      <trkpt lat="48.626618" lon="9.776838">
        <ele>685.997953</ele>
        <time>2026-04-08T19:48:01.650Z</time>
      </trkpt>
      <trkpt lat="48.626685" lon="9.777010">
        <ele>684.966232</ele>
        <time>2026-04-08T19:48:20.399Z</time>
      </trkpt>
      <trkpt lat="48.627351" lon="9.778104">
        <ele>678.650462</ele>
        <time>2026-04-08T19:50:38.710Z</time>
      </trkpt>
      <trkpt lat="48.628188" lon="9.778458">
        <ele>674.451580</ele>
        <time>2026-04-08T19:52:34.109Z</time>
      </trkpt>
      <trkpt lat="48.628379" lon="9.778604">
        <ele>673.417704</ele>
        <time>2026-04-08T19:53:00.627Z</time>
      </trkpt>
      <trkpt lat="48.628468" lon="9.778673">
        <ele>672.934548</ele>
        <time>2026-04-08T19:53:12.786Z</time>
      </trkpt>
      <trkpt lat="48.629309" lon="9.778982">
        <ele>673.962372</ele>
        <time>2026-04-08T19:54:56.815Z</time>
      </trkpt>
      <trkpt lat="48.629738" lon="9.779045">
        <ele>675.048442</ele>
        <time>2026-04-08T19:55:53.354Z</time>
      </trkpt>
      <trkpt lat="48.630316" lon="9.779491">
        <ele>676.683343</ele>
        <time>2026-04-08T19:57:25.666Z</time>
      </trkpt>
      <trkpt lat="48.631157" lon="9.778410">
        <ele>683.726168</ele>
        <time>2026-04-08T20:00:08.072Z</time>
      </trkpt>
      <trkpt lat="48.631763" lon="9.778381">
        <ele>687.617591</ele>
        <time>2026-04-08T20:01:39.271Z</time>
      </trkpt>
      <trkpt lat="48.631959" lon="9.778212">
        <ele>688.253228</ele>
        <time>2026-04-08T20:02:11.969Z</time>
      </trkpt>
      <trkpt lat="48.631821" lon="9.777580">
        <ele>688.253228</ele>
        <time>2026-04-08T20:03:13.867Z</time>
      </trkpt>
      <trkpt lat="48.631605" lon="9.777165">
        <ele>688.253228</ele>
        <time>2026-04-08T20:04:02.854Z</time>
      </trkpt>
      <trkpt lat="48.631543" lon="9.776665">
        <ele>688.253228</ele>
        <time>2026-04-08T20:04:49.548Z</time>
      </trkpt>
      <trkpt lat="48.631273" lon="9.775778">
        <ele>688.253228</ele>
        <time>2026-04-08T20:06:13.653Z</time>
      </trkpt>
      <trkpt lat="48.631206" lon="9.775547">
        <ele>688.253228</ele>
        <time>2026-04-08T20:06:34.243Z</time>
      </trkpt>
      <trkpt lat="48.631095" lon="9.775159">
        <ele>688.253228</ele>
        <time>2026-04-08T20:07:08.183Z</time>
      </trkpt>
    </trkseg>
  </trk>
</gpx>